[{"OBJECT_NAME":"TEVEL2-3","OBJECT_ID":"2025-052J","EPOCH":"2026-03-09T15:29:22.754400","MEAN_MOTION":15.30377031,"ECCENTRICITY":0.0004761,"INCLINATION":97.3994,"RA_OF_ASC_NODE":324.7775,"ARG_OF_PERICENTER":105.7353,"MEAN_ANOMALY":254.4413,"EPHEMERIS_TYPE":0,"CLASSIFICATION_TYPE":"U","NORAD_CAT_ID":63218,"ELEMENT_SET_NO":999,"REV_AT_EPOCH":5485,"BSTAR":0.00069446,"MEAN_MOTION_DOT":0.00020365,"MEAN_MOTION_DDOT":0},{"OBJECT_NAME":"STARLINK-35342","OBJECT_ID":"2025-243E","EPOCH":"2026-03-09T16:58:13.268064","MEAN_MOTION":15.3020522,"ECCENTRICITY":0.00010888,"INCLINATION":53.1573,"RA_OF_ASC_NODE":245.3681,"ARG_OF_PERICENTER":48.9697,"MEAN_ANOMALY":311.1397,"EPHEMERIS_TYPE":0,"CLASSIFICATION_TYPE":"U","NORAD_CAT_ID":66181,"ELEMENT_SET_NO":999,"REV_AT_EPOCH":2065,"BSTAR":0.00077066536,"MEAN_MOTION_DOT":0.00022539,"MEAN_MOTION_DDOT":0}]
